OBJECT_NAME,OBJECT_ID,EPOCH,MEAN_MOTION,ECCENTRICITY,INCLINATION,RA_OF_ASC_NODE,ARG_OF_PERICENTER,MEAN_ANOMALY,EPHEMERIS_TYPE,CLASSIFICATION_TYPE,NORAD_CAT_ID,ELEMENT_SET_NO,REV_AT_EPOCH,BSTAR,MEAN_MOTION_DOT,MEAN_MOTION_DDOT
SHERPA-LTC2,2022-107BG,2026-07-19T00:14:10.132800,14.69935333,.03930412,53.2364,85.5957,315.4176,41.5796,0,U,53754,999,20722,.10868909E-3,.1872E-4,0
CENTISPACE-1 S3,2022-108A,2026-07-19T15:05:28.088448,14.61285710,.00108156,53.5331,281.1083,74.7666,285.4505,0,U,53757,999,20627,.50987495E-4,.64E-6,0
CENTISPACE-1 S4,2022-108B,2026-07-19T14:20:55.483296,14.61970934,.0010177,53.5306,278.5997,64.1357,296.0667,0,U,53758,999,20630,.430135E-4,.26E-6,0
BLUEWALKER-3,2022-111AL,2026-07-19T09:38:11.414400,15.38634996,.00046407,53.2278,242.6898,285.1596,74.8896,0,U,53807,999,21516,.82883975E-4,.2815E-4,0
YUNHAI-1 03,2022-115A,2026-07-19T14:12:06.717888,14.32739027,.00038878,98.5547,198.3296,324.6868,35.4058,0,U,53877,999,20015,.95171493E-4,.215E-5,0
CENTISPACE-1 S5,2022-126A,2026-07-19T14:30:58.251168,14.63061266,.00141645,54.9992,83.2297,132.9318,227.2867,0,U,54020,999,20178,.93946758E-4,.296E-5,0
CENTISPACE-1 S6,2022-126B,2026-07-19T14:44:35.133792,14.62320831,.0015953,54.9994,85.2096,134.3210,225.9094,0,U,54021,999,20174,.84846832E-4,.243E-5,0
OTB-3-GAZELLE,2022-127A,2026-07-19T10:46:28.521408,14.42684878,.00144719,98.3964,191.6649,91.1629,269.1219,0,U,54023,999,19901,.30195017E-4,.57E-6,0
ASO-S,2022-129A,2026-07-19T13:42:57.778848,14.52076029,.00142342,98.2759,205.1898,359.0943,1.0224,0,U,54029,999,20012,.29484979E-4,.75E-6,0
HJ-2E,2022-132A,2026-07-19T14:52:46.291872,15.22727828,.00181021,97.3810,204.4230,253.2242,106.7009,0,U,54035,999,20935,.17353474E-3,.3994E-4,0
COSMOS 2561,2022-137A,2026-07-18T21:10:29.716032,15.52430300,.0008199,96.9163,257.7112,264.0400,95.9920,0,U,54109,999,21126,.12437E-3,.7516E-4,0
GONETS-M 23,2022-139A,2026-07-19T14:56:27.641760,12.42892040,.00222894,82.5098,328.1375,149.1754,211.0640,0,U,54150,999,16967,.17530947E-3,.34E-6,0
GONETS-M 24,2022-139B,2026-07-19T14:17:39.767424,12.42892580,.00173805,82.5015,327.1919,158.8157,201.3646,0,U,54151,999,16967,.19670326E-3,.37E-6,0
GONETS-M 25,2022-139C,2026-07-19T13:58:08.274144,12.42890962,.00213166,82.5080,327.9041,157.7897,202.4110,0,U,54152,999,16967,.17578947E-3,.34E-6,0
SKIF-D,2022-139D,2026-07-19T05:37:36.556896,5.00432406,.00074687,89.9488,96.6589,185.6510,174.4138,0,U,54153,999,6571,0,-.1E-7,0
MATS,2022-147A,2026-07-19T11:38:21.779520,15.05518107,.00141642,97.6837,201.9461,90.5494,269.7356,0,U,54227,999,20262,.13504156E-3,.1884E-4,0
EOS-6 (OCEANSAT-3),2022-158A,2026-07-19T14:14:56.027328,14.46985669,.000066,98.3550,298.3590,152.2551,207.8677,0,U,54361,999,19252,.41234606E-4,.106E-5,0
DONGPO 09,2022-167D,2026-07-19T15:25:36.439104,15.36992790,.00024988,97.6928,13.1199,42.5833,317.5604,0,U,54685,999,20043,.18059126E-3,.6447E-4,0
DONGPO 08,2022-167E,2026-07-19T14:46:31.486080,15.34235635,.00090662,97.6893,10.1143,60.5227,299.6918,0,U,54686,999,20029,.17251419E-3,.5638E-4,0
2022-167F,2022-167F,2026-07-18T09:21:25.252704,16.35361496,.00102991,97.5951,31.7738,263.4194,96.5930,0,U,54687,999,20183,.91515806E-3,.6849805E-1,.2645507E-5
DONGPO 10,2022-167H,2026-07-19T14:31:20.277120,15.35053422,.00045855,97.6974,12.1317,13.8281,346.3087,0,U,54689,999,20033,.17242296E-3,.5779E-4,0
JILIN-1 GAOFEN 03D48,2022-167P,2026-07-19T14:04:17.496768,15.35847780,.0006039,97.6909,11.5017,15.3551,344.7874,0,U,54695,999,20036,.17472726E-3,.601E-4,0
STAR VIBE,2023-001A,2026-07-19T14:16:31.526112,15.43424727,.00050014,97.3146,265.2056,16.5350,343.6060,0,U,55009,999,19722,.17993096E-3,.7958E-4,0
BRO-8,2023-001C,2026-07-19T15:34:47.969184,15.50930484,.00043915,97.3177,266.3426,23.0955,337.0493,0,U,55011,999,19723,.35239437E-3,.20343E-3,0
CONNECTA T1.2,2023-001D,2026-07-19T03:37:45.763968,15.53087439,.00035138,97.3234,271.4600,345.2768,14.8382,0,U,55012,999,19750,.42073401E-3,.26272E-3,0
BIRKELAND,2023-001G,2026-07-19T15:03:59.154336,15.40580326,.00058663,97.3325,268.6897,5.5519,354.5791,0,U,55015,999,19734,.11552943E-3,.4614E-4,0
ION SCV-008,2023-001AU,2026-07-19T05:53:08.621088,15.28906558,.00132521,97.5715,297.1087,257.1423,102.8336,0,U,55051,999,19623,.1166279E-3,.3203E-4,0
ION SCV-007,2023-001BD,2026-07-19T03:52:57.052416,14.77578073,.00112639,97.8989,262.5398,228.0714,131.9537,0,U,55060,999,19097,.30105166E-4,.164E-5,0
HUYGENS,2023-001CN,2026-07-19T15:04:06.485376,15.40581414,.00079252,97.3229,267.8772,335.4314,24.6554,0,U,55093,999,19736,.12550029E-3,.5022E-4,0
SHARJAHSAT-1,2023-001CZ,2026-07-19T14:12:54.229248,15.50220148,.00043259,97.3140,269.8323,5.2610,354.8687,0,U,55104,999,19751,.20066577E-3,.11243E-3,0
