SHERPA-LTC2             
1 53754U 22107BG  26200.00983950  .00001872  00000+0  10869-3 0  9994
2 53754  53.2364  85.5957 0393041 315.4176  41.5796 14.69935333207226
CENTISPACE-1 S3         
1 53757U 22108A   26200.62879732  .00000064  00000+0  50987-4 0  9996
2 53757  53.5331 281.1083 0010815  74.7666 285.4505 14.61285710206274
CENTISPACE-1 S4         
1 53758U 22108B   26200.59786439  .00000026  00000+0  43014-4 0  9995
2 53758  53.5306 278.5997 0010177  64.1357 296.0667 14.61970934206302
BLUEWALKER-3            
1 53807U 22111AL  26200.40152100  .00002815  00000+0  82884-4 0  9992
2 53807  53.2278 242.6898 0004640 285.1596  74.8896 15.38634996215162
YUNHAI-1 03             
1 53877U 22115A   26200.59174442  .00000215  00000+0  95171-4 0  9991
2 53877  98.5547 198.3296 0003887 324.6868  35.4058 14.32739027200152
CENTISPACE-1 S5         
1 54020U 22126A   26200.60484087  .00000296  00000+0  93947-4 0  9993
2 54020  54.9992  83.2297 0014164 132.9318 227.2867 14.63061266201782
CENTISPACE-1 S6         
1 54021U 22126B   26200.61429553  .00000243  00000+0  84847-4 0  9993
2 54021  54.9994  85.2096 0015953 134.3210 225.9094 14.62320831201746
OTB-3-GAZELLE           
1 54023U 22127A   26200.44894122  .00000057  00000+0  30195-4 0  9995
2 54023  98.3964 191.6649 0014471  91.1629 269.1219 14.42684878199018
ASO-S                   
1 54029U 22129A   26200.57150207  .00000075  00000+0  29485-4 0  9996
2 54029  98.2759 205.1898 0014234 359.0943   1.0224 14.52076029200122
HJ-2E                   
1 54035U 22132A   26200.61998023  .00003994  00000+0  17353-3 0  9991
2 54035  97.3810 204.4230 0018102 253.2242 106.7009 15.22727828209350
COSMOS 2561             
1 54109U 22137A   26199.88228838  .00007516  00000+0  12437-3 0  9996
2 54109  96.9163 257.7112 0008199 264.0400  95.9920 15.52430300211262
GONETS-M 23             
1 54150U 22139A   26200.62254215  .00000034  00000+0  17531-3 0  9995
2 54150  82.5098 328.1375 0022289 149.1754 211.0640 12.42892040169677
GONETS-M 24             
1 54151U 22139B   26200.59559916  .00000037  00000+0  19670-3 0  9997
2 54151  82.5015 327.1919 0017380 158.8157 201.3646 12.42892580169677
GONETS-M 25             
1 54152U 22139C   26200.58204021  .00000034  00000+0  17579-3 0  9994
2 54152  82.5080 327.9041 0021316 157.7897 202.4110 12.42890962169677
SKIF-D                  
1 54153U 22139D   26200.23445089 -.00000001  00000+0  00000+0 0  9990
2 54153  89.9488  96.6589 0007468 185.6510 174.4138  5.00432406 65711
MATS                    
1 54227U 22147A   26200.48497430  .00001884  00000+0  13504-3 0  9991
2 54227  97.6837 201.9461 0014164  90.5494 269.7356 15.05518107202625
EOS-6 (OCEANSAT-3)      
1 54361U 22158A   26200.59370402  .00000106  00000+0  41235-4 0  9992
2 54361  98.3550 298.3590 0000660 152.2551 207.8677 14.46985669192524
DONGPO 09               
1 54685U 22167D   26200.64278286  .00006447  00000+0  18059-3 0  9995
2 54685  97.6928  13.1199 0002498  42.5833 317.5604 15.36992790200439
DONGPO 08               
1 54686U 22167E   26200.61564220  .00005638  00000+0  17251-3 0  9993
2 54686  97.6893  10.1143 0009066  60.5227 299.6918 15.34235635200290
2022-167F               
1 54687U 22167F   26199.38987561  .06849805  26455-5  91516-3 0  9994
2 54687  97.5951  31.7738 0010299 263.4194  96.5930 16.35361496201837
DONGPO 10               
1 54689U 22167H   26200.60509580  .00005779  00000+0  17242-3 0  9999
2 54689  97.6974  12.1317 0004585  13.8281 346.3087 15.35053422200335
JILIN-1 GAOFEN 03D48    
1 54695U 22167P   26200.58631362  .00006010  00000+0  17473-3 0  9992
2 54695  97.6909  11.5017 0006039  15.3551 344.7874 15.35847780200360
STAR VIBE               
1 55009U 23001A   26200.59480933  .00007958  00000+0  17993-3 0  9996
2 55009  97.3146 265.2056 0005001  16.5350 343.6060 15.43424727197225
BRO-8                   
1 55011U 23001C   26200.64916631  .00020343  00000+0  35239-3 0  9990
2 55011  97.3177 266.3426 0004391  23.0955 337.0493 15.50930484197238
CONNECTA T1.2           
1 55012U 23001D   26200.15122412  .00026272  00000+0  42073-3 0  9994
2 55012  97.3234 271.4600 0003513 345.2768  14.8382 15.53087439197503
BIRKELAND               
1 55015U 23001G   26200.62776799  .00004614  00000+0  11553-3 0  9997
2 55015  97.3325 268.6897 0005866   5.5519 354.5791 15.40580326197345
ION SCV-008             
1 55051U 23001AU  26200.24523867  .00003203  00000+0  11663-3 0  9996
2 55051  97.5715 297.1087 0013252 257.1423 102.8336 15.28906558196236
ION SCV-007             
1 55060U 23001BD  26200.16177144  .00000164  00000+0  30105-4 0  9996
2 55060  97.8989 262.5398 0011263 228.0714 131.9537 14.77578073190974
HUYGENS                 
1 55093U 23001CN  26200.62785284  .00005022  00000+0  12550-3 0  9994
2 55093  97.3229 267.8772 0007925 335.4314  24.6554 15.40581414197366
SHARJAHSAT-1            
1 55104U 23001CZ  26200.59229432  .00011243  00000+0  20067-3 0  9995
2 55104  97.3140 269.8323 0004325   5.2610 354.8687 15.50220148197514
